Dembowska,e,8.25824,32.15221,343.60904,2.9245627,0.19706644,0.0900523,257.57766,11/5/1990,1950.0,5.98,0.32
Demeter,e,24.93134,234.04957,77.17360,2.4256804,0.26088776,0.2586662,53.20424,11/5/1990,1950.0,11.88,0.15
Demiddelaer,e,13.73901,93.23847,89.23920,2.6580303,0.22743860,0.1062255,321.29384,11/5/1990,1950.0,12.10,0.25
Demottoni,e,4.90326,209.16779,36.34675,2.2470718,0.29260291,0.1449418,202.10908,11/5/1990,1950.0,14.10,0.25
Demoulina,e,2.54777,172.11084,198.09777,2.2403386,0.29392301,0.1543300,256.39610,11/5/1990,1950.0,13.80,0.25
Deneb,f,20:41:26,45:16,1.25,2000
Denebola,f,11:49:4,14:34,2.13,2000
Denise,e,25.39157,152.73429,308.23125,3.1847360,0.17341790,0.1929239,10.61912,11/5/1990,1950.0,9.12,0.15
Dennispalm,e,31.27418,11.32481,119.31531,2.6392378,0.22987211,0.2550250,67.75944,11/5/1990,1950.0,13.00,0.25
Derevskaya,e,10.38184,171.64258,137.81304,3.0064618,0.18906909,0.0954302,152.70231,11/5/1990,1950.0,12.43,0.25
Derice,e,3.83967,270.62523,193.08988,2.2363770,0.29470435,0.1067355,67.27382,11/5/1990,1950.0,12.70,0.25
Dermott,e,8.04729,125.82772,218.88167,2.8038643,0.20992714,0.0996786,135.30270,11/5/1990,1950.0,11.50,0.25
Desagneauxa,e,8.67519,290.79078,163.18266,3.0230513,0.18751491,0.0493134,219.70260,11/5/1990,1950.0,10.84,0.25
Descamisada,e,11.27689,98.50373,222.00342,3.0302778,0.18684454,0.0640685,113.49947,11/5/1990,1950.0,11.00,0.25
Desdemona,e,7.60762,215.09008,173.56807,2.5913902,0.23626797,0.2407909,204.75779,11/5/1990,1950.0,10.80,0.15
Desiderata,e,18.39562,47.98067,236.48897,2.5931329,0.23602984,0.3176161,243.75404,11/5/1990,1950.0,8.11,0.17
Detre,e,9.44819,342.78022,12.84843,2.3621075,0.27149047,0.2182691,286.74733,11/5/1990,1950.0,14.40,0.25
Devine,e,9.65944,117.54119,181.15435,3.9601703,0.12506428,0.1315705,271.11042,11/5/1990,1950.0,10.80,0.25
Devosa,e,7.85521,354.97531,98.60452,2.3829812,0.26793112,0.1381447,171.32347,11/5/1990,1950.0,8.76,0.25
Devota,e,5.77731,223.29202,169.24619,3.4847039,0.15151487,0.1547852,341.89683,11/5/1990,1950.0,10.35,0.15
Di Martino,e,3.92744,45.22141,144.87348,2.3779350,0.26878442,0.1269618,62.93470,11/5/1990,1950.0,13.01,0.25
Diana,e,8.66314,333.14186,150.75091,2.6215389,0.23220396,0.2049382,63.93016,11/5/1990,1950.0,8.11,0.08
Dibaj,e,7.80293,333.59331,336.70864,2.4473196,0.25743526,0.2300498,185.16165,11/5/1990,1950.0,13.10,0.25
Dicicco,e,5.22406,45.67743,359.30968,2.2739563,0.28742921,0.1597147,9.55228,11/5/1990,1950.0,13.20,0.25
Dickens,e,2.55379,217.88451,152.76561,2.1959331,0.30288337,0.2000611,170.05341,11/5/1990,1950.0,14.60,0.25
Dido,e,7.18718,0.32972,256.13343,3.1442639,0.17677693,0.0670194,83.07524,11/5/1990,1950.0,8.21,0.15
Dieckvoss,e,1.87227,279.25776,338.55195,2.1250930,0.31815384,0.1149881,120.66985,11/5/1990,1950.0,12.80,0.25
Dikanka,e,2.98217,187.47902,343.88412,2.3709204,0.26997814,0.1453538,16.88197,11/5/1990,1950.0,13.80,0.25
Dike,e,13.89985,41.22193,194.95931,2.6616607,0.22697344,0.1995339,46.88880,11/5/1990,1950.0,9.42,0.15
Dimitrov,e,1.77926,234.85467,283.41861,2.4405765,0.25850291,0.0128521,216.87141,11/5/1990,1950.0,12.72,0.25
Diomedes,e,20.57522,315.12489,130.12928,5.1117113,0.08528145,0.0458044,112.30080,11/5/1990,1950.0,8.30,0.15
Dione,e,4.62191,61.99224,330.57188,3.1614037,0.17534127,0.1804669,208.08779,11/5/1990,1950.0,7.42,0.17
Dionysius,e,13.62584,81.79118,203.67260,2.1946314,0.30315288,0.5431419,340.20945,11/5/1990,1950.0,16.50,0.25
Diotima,e,11.24887,69.16534,215.37545,3.0670710,0.18349250,0.0367369,297.58434,11/5/1990,1950.0,7.33,0.15
Diphda,f,0:43:35,-17:59,2.03,2000
Dirikis,e,2.52179,78.63208,87.29118,3.1272846,0.17821857,0.1277520,292.56978,11/5/1990,1950.0,11.20,0.25
Disa,e,2.79112,256.25763,315.99649,2.9962496,0.19003653,0.1972359,332.28225,11/5/1990,1950.0,10.60,0.25
Disneya,e,3.02109,31.98677,312.12378,2.5858010,0.23703442,0.0995721,34.33536,11/5/1990,1950.0,13.00,0.25
Doberman,e,23.52316,180.31869,247.04938,1.9312303,0.36724253,0.1035872,227.98250,11/5/1990,1950.0,13.50,0.25
Dobronravin,e,4.73911,110.44130,325.05112,3.0578451,0.18432357,0.2055980,154.98223,11/5/1990,1950.0,12.24,0.15
Dobrovoleva,e,3.65938,6.82554,93.87514,2.3585892,0.27209816,0.1400813,308.47188,11/5/1990,1950.0,13.54,0.25
Dobrovolsky,e,1.97811,101.65724,214.32604,2.2145540,0.29907124,0.1876039,143.18280,11/5/1990,1950.0,12.54,0.25
Dodona,e,7.40556,313.07442,272.35111,3.1154391,0.17923597,0.1781261,119.82159,11/5/1990,1950.0,8.86,0.25
Dollfus,e,8.58285,331.63548,323.50798,2.7240433,0.21922146,0.1517131,126.07769,11/5/1990,1950.0,12.02,0.15
Dolores,e,6.99766,246.97608,46.09984,2.6955338,0.22270856,0.2411643,296.27002,11/5/1990,1950.0,11.12,0.15
Domeyko,e,6.69802,107.66130,180.07791,2.2417383,0.29364778,0.1738013,153.03899,11/5/1990,1950.0,13.10,0.25
Dommanget,e,6.47099,71.28877,335.11508,2.7437037,0.21686939,0.0661153,146.53184,11/5/1990,1950.0,12.60,0.25
Donar,e,3.04829,89.74986,175.36769,2.9302282,0.19649518,0.0538215,97.25505,11/5/1990,1950.0,12.20,0.25
Donna,e,3.82421,270.51575,159.27269,2.3888793,0.26693945,0.1005357,34.78294,11/5/1990,1950.0,13.39,0.25
Donnera,e,11.85111,296.69070,75.51040,3.1516313,0.17615743,0.1150746,215.80924,11/5/1990,1950.0,10.31,0.25
Dora,e,6.83087,214.14738,113.00836,2.7947691,0.21095274,0.2347104,200.52807,11/5/1990,1950.0,12.13,0.15
Dorffel,e,1.35754,346.63385,60.80277,2.8512366,0.20471713,0.0709263,205.48034,11/5/1990,1950.0,12.00,0.25
Doris,e,6.54030,183.36045,262.88738,3.1105855,0.17965564,0.0696923,350.58414,11/5/1990,1950.0,6.92,0.15
Dornburg,e,4.43793,138.73302,145.78387,2.2839983,0.28553569,0.1647950,109.67664,11/5/1990,1950.0,13.50,0.25
Dorothea,e,9.94650,173.38531,159.96711,3.0104352,0.18869489,0.1021756,304.13288,11/5/1990,1950.0,9.34,0.25
Dorrit,e,22.05480,19.45650,293.40323,1.9179788,0.37105507,0.2070354,139.78159,11/5/1990,1950.0,14.20,0.25
Dorsey,e,10.95349,64.25330,258.64826,3.0177410,0.18801007,0.0956483,142.47046,11/5/1990,1950.0,12.10,0.25
Dostojevsky,e,4.50845,300.43579,318.58599,2.3870158,0.26725210,0.0844574,290.63718,11/5/1990,1950.0,11.80,0.25
Douglas,e,9.92245,150.74396,98.53257,3.0481632,0.18520246,0.0440624,186.27066,11/5/1990,1950.0,11.79,0.15
Drakonia,e,7.71368,359.73215,334.86329,2.4357850,0.25926605,0.1331429,92.73108,11/5/1990,1950.0,11.37,0.40
Dresda,e,1.31003,216.19109,161.81752,2.8896447,0.20064918,0.0769104,89.85583,11/5/1990,1950.0,10.52,0.25
Dresden,e,4.61422,6.37013,316.37917,2.3791626,0.26857642,0.2066106,220.21995,11/5/1990,1950.0,12.53,0.25
Drukar,e,14.09180,45.99479,204.48300,3.4009876,0.15714353,0.0376478,272.21494,11/5/1990,1950.0,11.80,0.25
Druzhba,e,3.17341,181.41838,238.05257,2.2306403,0.29584195,0.1191814,52.93465,11/5/1990,1950.0,11.64,0.25
Dubhe,f,11:3:44,61:45,1.79,2000
Dubiago,e,5.73040,224.37008,57.33705,3.4083515,0.15663453,0.0814715,232.81154,11/5/1990,1950.0,9.94,0.15
Duboshin,e,5.17962,61.56002,347.09863,3.9888159,0.12371948,0.1431204,81.57232,11/5/1990,1950.0,10.24,0.15
Ducrosa,e,10.50179,326.79245,241.14344,3.1334813,0.17769017,0.1073786,57.41155,11/5/1990,1950.0,10.00,0.25
Dudley,e,27.62409,146.47350,326.50945,2.1492743,0.31279969,0.3301111,295.22157,11/5/1990,1950.0,14.70,0.25
Dudu,e,17.96619,70.41351,214.82453,2.7523990,0.21584252,0.2734033,235.37437,11/5/1990,1950.0,10.42,0.15
Dufour,e,6.62939,29.29505,57.63825,3.2022119,0.17200021,0.1079089,297.71985,11/5/1990,1950.0,11.20,0.25
Dugan,e,9.78747,130.21027,310.86236,2.3147278,0.27986860,0.2042200,50.97671,11/5/1990,1950.0,13.43,0.25
Dulcinea,e,5.23614,2.72123,26.73988,2.4104825,0.26335896,0.2409533,250.20542,11/5/1990,1950.0,11.69,0.25
Dunant,e,1.59135,15.37099,5.63813,3.2032717,0.17191486,0.2174651,16.15909,11/5/1990,1950.0,12.20,0.25
Dunbar,e,3.55518,71.27579,226.23447,2.6346755,0.23046946,0.0527599,53.04499,11/5/1990,1950.0,12.90,0.25
Duncan,e,6.86855,344.27494,124.50641,2.7900549,0.21148762,0.0365809,143.65297,11/5/1990,1950.0,11.81,0.15
Duncombe,e,19.10902,3.83925,359.88013,3.3868304,0.15812987,0.0960550,293.47466,11/5/1990,1950.0,11.20,0.25
Dunham,e,1.99473,122.64557,223.27952,2.4638852,0.25484339,0.1327580,132.54355,11/5/1990,1950.0,13.36,0.15
Dunlap,e,2.00174,150.85879,170.05414,3.1489811,0.17637986,0.0986054,233.51533,11/5/1990,1950.0,12.20,0.25
Duponta,e,4.81620,325.18903,109.97565,2.2636033,0.28940338,0.1124920,147.99362,11/5/1990,1950.0,12.91,0.25
Durer,e,24.18884,161.80240,244.10884,2.9637548,0.19317044,0.0857197,338.21383,11/5/1990,1950.0,11.17,0.15
Durrell,e,8.26517,342.17212,23.02991,2.7284668,0.21868856,0.2511606,326.30594,11/5/1990,1950.0,12.50,0.25
Dvorak,e,21.52477,340.13323,243.57336,2.3096273,0.28079620,0.3109944,231.99702,11/5/1990,1950.0,13.50,0.25
Dwornik,e,23.75135,157.10161,105.12194,1.9534778,0.36098682,0.0426396,160.04445,11/5/1990,1950.0,13.79,0.40
Dynamene,e,6.89991,324.18829,85.28457,2.7357277,0.21781851,0.1353156,124.71527,11/5/1990,1950.0,8.20,0.06
Dysona,e,23.54273,321.88011,324.06650,3.1847263,0.17341869,0.1082123,26.42555,11/5/1990,1950.0,9.45,0.15
Dzhalil,e,10.36285,117.27369,230.72999,2.5767766,0.23828073,0.0758319,79.37497,11/5/1990,1950.0,12.38,0.15
Dzhangar,e,5.75694,350.15095,18.70082,2.5518926,0.24177450,0.1137507,336.15753,11/5/1990,1950.0,13.19,0.15
Dzhanibekov,e,2.02479,26.70563,78.30877,2.9298440,0.19653383,0.0900956,7.74406,11/5/1990,1950.0,12.10,0.25
Dzus,e,15.77104,224.73196,112.97641,2.7302188,0.21847810,0.1981318,101.94241,11/5/1990,1950.0,11.70,0.25
Ebella,e,8.89744,22.69245,348.93062,2.5333959,0.24442718,0.2772671,231.47159,11/5/1990,1950.0,14.10,0.25
Echo,e,3.60174,191.39734,269.73474,2.3933330,0.26619469,0.1828537,321.59493,11/5/1990,1950.0,8.68,0.33
Eckert,e,19.08319,273.25924,108.66389,1.9264701,0.36860453,0.1726377,333.90153,11/5/1990,1950.0,13.52,0.25
Edburga,e,18.76399,103.94318,251.31278,2.5816509,0.23760622,0.3451814,12.57022,11/5/1990,1950.0,10.24,0.25
Edda,e,2.87260,226.55404,238.54591,2.8163289,0.20853503,0.0125766,34.80313,11/5/1990,1950.0,10.27,0.25
Eddington,e,3.17890,30.88625,101.84354,3.0732444,0.18293989,0.1878232,291.75117,11/5/1990,1950.0,12.08,0.15
